[{"OBJECT_NAME":"RESURS-P 4","OBJECT_ID":"2024-061A","EPOCH":"2026-03-10T00:09:50.865408","MEAN_MOTION":15.32930455,"ECCENTRICITY":0.00024315,"INCLINATION":97.2654,"RA_OF_ASC_NODE":18.6595,"ARG_OF_PERICENTER":59.481,"MEAN_ANOMALY":300.6672,"EPHEMERIS_TYPE":0,"CLASSIFICATION_TYPE":"U","NORAD_CAT_ID":59371,"ELEMENT_SET_NO":999,"REV_AT_EPOCH":10857,"BSTAR":0.00016169192,"MEAN_MOTION_DOT":5.066e-5,"MEAN_MOTION_DDOT":0},{"OBJECT_NAME":"STARLINK-34936","OBJECT_ID":"2025-224S","EPOCH":"2026-03-09T05:17:00.344832","MEAN_MOTION":15.3018483,"ECCENTRICITY":0.0001186,"INCLINATION":53.161,"RA_OF_ASC_NODE":13.4363,"ARG_OF_PERICENTER":75.2552,"MEAN_ANOMALY":284.858,"EPHEMERIS_TYPE":0,"CLASSIFICATION_TYPE":"U","NORAD_CAT_ID":65898,"ELEMENT_SET_NO":999,"REV_AT_EPOCH":2480,"BSTAR":0.00079360732,"MEAN_MOTION_DOT":0.00023208,"MEAN_MOTION_DDOT":0}]
